{
  "type": "FeatureCollection",
  "features": [
    {
      "type": "Feature",
      "properties": {
        "norad_id": 41556,
        "name": "ZIYUAN 3-2 (ZY 3-2)",
        "group": "resource",
        "lat": 57.6107271327994,
        "lon": 43.37505910924595,
        "alt_km": 503.261206416576,
        "timestamp": "2025-12-06T22:38:42.392273+00:00",
        "meta_object_name": "ZIYUAN 3-2 (ZY 3-2)",
        "meta_object_id": "2016-033A",
        "meta_epoch": "2025-12-06T14:29:47.350464",
        "meta_mean_motion": 15.21371581,
        "meta_eccentricity": 0.00123584,
        "meta_inclination": 97.4052,
        "meta_ra_of_asc_node": 54.8722,
        "meta_arg_of_pericenter": 273.138,
        "meta_mean_anomaly": 86.8442,
        "meta_ephemeris_type": 0,
        "meta_classification_type": "U",
        "meta_norad_cat_id": 41556,
        "meta_element_set_no": 999,
        "meta_rev_at_epoch": 52870,
        "meta_bstar": 0.00054944554,
        "meta_mean_motion_dot": 0.00012282,
        "meta_mean_motion_ddot": 0,
        "tle_line1": "1 41556U 16033A   25340.60402026  .00012282  00000+0  54945-3 0  9992",
        "tle_line2": "2 41556  97.4052  54.8722 0012358 273.1380  86.8442 15.21371581528709"
      },
      "geometry": {
        "type": "Point",
        "coordinates": [
          43.37505910924595,
          57.6107271327994
        ]
      }
    },
    {
      "type": "Feature",
      "properties": {
        "norad_id": 41599,
        "name": "CARTOSAT-2C",
        "group": "resource",
        "lat": 47.12308915259767,
        "lon": 30.12180114331601,
        "alt_km": 497.8964252462756,
        "timestamp": "2025-12-06T22:38:42.392284+00:00",
        "meta_object_name": "CARTOSAT-2C",
        "meta_object_id": "2016-040A",
        "meta_epoch": "2025-12-06T14:31:56.639424",
        "meta_mean_motion": 15.19205253,
        "meta_eccentricity": 0.0010998,
        "meta_inclination": 97.4772,
        "meta_ra_of_asc_node": 37.9191,
        "meta_arg_of_pericenter": 83.7699,
        "meta_mean_anomaly": 276.4788,
        "meta_ephemeris_type": 0,
        "meta_classification_type": "U",
        "meta_norad_cat_id": 41599,
        "meta_element_set_no": 999,
        "meta_rev_at_epoch": 52447,
        "meta_bstar": 0.00039036218,
        "meta_mean_motion_dot": 8.164e-05,
        "meta_mean_motion_ddot": 0,
        "tle_line1": "1 41599U 16040A   25340.60551666  .00008164  00000+0  39036-3 0  9990",
        "tle_line2": "2 41599  97.4772  37.9191 0010998  83.7699 276.4788 15.19205253524472"
      },
      "geometry": {
        "type": "Point",
        "coordinates": [
          30.12180114331601,
          47.12308915259767
        ]
      }
    },
    {
      "type": "Feature",
      "properties": {
        "norad_id": 41601,
        "name": "SKYSAT-C1",
        "group": "resource",
        "lat": -7.085269141001056,
        "lon": -162.58795823946951,
        "alt_km": 474.43732799698955,
        "timestamp": "2025-12-06T22:38:42.392295+00:00",
        "meta_object_name": "SKYSAT-C1",
        "meta_object_id": "2016-040C",
        "meta_epoch": "2025-12-06T15:33:46.918944",
        "meta_mean_motion": 15.32427117,
        "meta_eccentricity": 0.00030188,
        "meta_inclination": 96.9826,
        "meta_ra_of_asc_node": 18.0065,
        "meta_arg_of_pericenter": 31.5056,
        "meta_mean_anomaly": 328.6367,
        "meta_ephemeris_type": 0,
        "meta_classification_type": "U",
        "meta_norad_cat_id": 41601,
        "meta_element_set_no": 999,
        "meta_rev_at_epoch": 52834,
        "meta_bstar": 0.00048255106,
        "meta_mean_motion_dot": 0.00015051,
        "meta_mean_motion_ddot": 0,
        "tle_line1": "1 41601U 16040C   25340.64845971  .00015051  00000+0  48255-3 0  9999",
        "tle_line2": "2 41601  96.9826  18.0065 0003018  31.5056 328.6367 15.32427117528346"
      },
      "geometry": {
        "type": "Point",
        "coordinates": [
          -162.58795823946951,
          -7.085269141001056
        ]
      }
    },
    {
      "type": "Feature",
      "properties": {
        "norad_id": 41603,
        "name": "LAPAN-A3",
        "group": "resource",
        "lat": -8.700141794466942,
        "lon": -20.18966915806954,
        "alt_km": 468.4455855528122,
        "timestamp": "2025-12-06T22:38:42.392306+00:00",
        "meta_object_name": "LAPAN-A3",
        "meta_object_id": "2016-040E",
        "meta_epoch": "2025-12-06T14:50:33.313632",
        "meta_mean_motion": 15.31478358,
        "meta_eccentricity": 0.0010414,
        "meta_inclination": 97.1422,
        "meta_ra_of_asc_node": 338.3976,
        "meta_arg_of_pericenter": 356.8805,
        "meta_mean_anomaly": 3.2371,
        "meta_ephemeris_type": 0,
        "meta_classification_type": "U",
        "meta_norad_cat_id": 41603,
        "meta_element_set_no": 999,
        "meta_rev_at_epoch": 52532,
        "meta_bstar": 0.00021408081,
        "meta_mean_motion_dot": 6.444e-05,
        "meta_mean_motion_ddot": 0,
        "tle_line1": "1 41603U 16040E   25340.61844113  .00006444  00000+0  21408-3 0  9992",
        "tle_line2": "2 41603  97.1422 338.3976 0010414 356.8805   3.2371 15.31478358525323"
      },
      "geometry": {
        "type": "Point",
        "coordinates": [
          -20.18966915806954,
          -8.700141794466942
        ]
      }
    },
    {
      "type": "Feature",
      "properties": {
        "norad_id": 41604,
        "name": "BIROS",
        "group": "resource",
        "lat": 66.7103346854234,
        "lon": -4.598894196029685,
        "alt_km": 303.4699516603405,
        "timestamp": "2025-12-06T22:38:42.392316+00:00",
        "meta_object_name": "BIROS",
        "meta_object_id": "2016-040F",
        "meta_epoch": "2025-12-06T14:47:42.899136",
        "meta_mean_motion": 15.87194787,
        "meta_eccentricity": 0.00030364,
        "meta_inclination": 97.0681,
        "meta_ra_of_asc_node": 11.8159,
        "meta_arg_of_pericenter": 162.4824,
        "meta_mean_anomaly": 197.6553,
        "meta_ephemeris_type": 0,
        "meta_classification_type": "U",
        "meta_norad_cat_id": 41604,
        "meta_element_set_no": 999,
        "meta_rev_at_epoch": 52775,
        "meta_bstar": 0.0008085855,
        "meta_mean_motion_dot": 0.00214242,
        "meta_mean_motion_ddot": 0,
        "tle_line1": "1 41604U 16040F   25340.61646874  .00214242  00000+0  80859-3 0  9999",
        "tle_line2": "2 41604  97.0681  11.8159 0003036 162.4824 197.6553 15.87194787527751"
      },
      "geometry": {
        "type": "Point",
        "coordinates": [
          -4.598894196029685,
          66.7103346854234
        ]
      }
    },
    {
      "type": "Feature",
      "properties": {
        "norad_id": 41727,
        "name": "GAOFEN-3",
        "group": "resource",
        "lat": -8.819952824086565,
        "lon": 165.30386999092863,
        "alt_km": 755.7674256870714,
        "timestamp": "2025-12-06T22:38:42.392326+00:00",
        "meta_object_name": "GAOFEN-3",
        "meta_object_id": "2016-049A",
        "meta_epoch": "2025-12-06T15:06:44.169696",
        "meta_mean_motion": 14.42211491,
        "meta_eccentricity": 0.00015293,
        "meta_inclination": 98.404,
        "meta_ra_of_asc_node": 346.3092,
        "meta_arg_of_pericenter": 70.192,
        "meta_mean_anomaly": 289.9434,
        "meta_ephemeris_type": 0,
        "meta_classification_type": "U",
        "meta_norad_cat_id": 41727,
        "meta_element_set_no": 999,
        "meta_rev_at_epoch": 49089,
        "meta_bstar": 6.525839e-05,
        "meta_mean_motion_dot": 1.72e-06,
        "meta_mean_motion_ddot": 0,
        "tle_line1": "1 41727U 16049A   25340.62967789  .00000172  00000+0  65258-4 0  9998",
        "tle_line2": "2 41727  98.4040 346.3092 0001529  70.1920 289.9434 14.42211491490899"
      },
      "geometry": {
        "type": "Point",
        "coordinates": [
          165.30386999092863,
          -8.819952824086565
        ]
      }
    },
    {
      "type": "Feature",
      "properties": {
        "norad_id": 41771,
        "name": "SKYSAT-C4",
        "group": "resource",
        "lat": -76.23601406596939,
        "lon": 36.22030622503321,
        "alt_km": 448.12247841774297,
        "timestamp": "2025-12-06T22:38:42.392337+00:00",
        "meta_object_name": "SKYSAT-C4",
        "meta_object_id": "2016-058B",
        "meta_epoch": "2025-12-06T15:11:46.246560",
        "meta_mean_motion": 15.41994112,
        "meta_eccentricity": 9.617e-05,
        "meta_inclination": 96.9374,
        "meta_ra_of_asc_node": 6.1184,
        "meta_arg_of_pericenter": 131.1692,
        "meta_mean_anomaly": 228.964,
        "meta_ephemeris_type": 0,
        "meta_classification_type": "U",
        "meta_norad_cat_id": 41771,
        "meta_element_set_no": 999,
        "meta_rev_at_epoch": 51573,
        "meta_bstar": 0.00054210571,
        "meta_mean_motion_dot": 0.00023061,
        "meta_mean_motion_ddot": 0,
        "tle_line1": "1 41771U 16058B   25340.63317415  .00023061  00000+0  54211-3 0  9991",
        "tle_line2": "2 41771  96.9374   6.1184 0000961 131.1692 228.9640 15.41994112515738"
      },
      "geometry": {
        "type": "Point",
        "coordinates": [
          36.22030622503321,
          -76.23601406596939
        ]
      }
    }
  ]
}